TJS-4                   
1 44637U 19070A   26159.14637273 -.00000154  00000+0  00000+0 0  9996
2 44637   0.0127 285.1460 0004897 114.5803 353.0353  1.00270325 24448
BEIDOU-3 IGSO-3         
1 44709U 19073A   26136.81046384 -.00000217  00000+0  00000+0 0  9995
2 44709  54.8566 281.2355 0042953 189.4588 170.3676  1.00246251 24144
TIBA-1                  
1 44800U 19080A   26159.27944000  .00000171  00000+0  00000+0 0  9990
2 44800   0.0515 346.1762 0002179 114.0629 292.5485  1.00274328 23962
INMARSAT GX5            
1 44801U 19080B   26159.27458664  .00000090  00000+0  00000+0 0  9997
2 44801   0.0377   8.7919 0002463  66.8794 290.8881  1.00270443  6693
JCSAT-18 (KACIFIC 1)    
1 44868U 19091A   26159.23080350 -.00000185  00000+0  00000+0 0  9997
2 44868   0.0227 230.8659 0000270 340.2653 278.6035  1.00270939 23926
ELEKTRO-L 3             
1 44903U 19095A   26159.14489939 -.00000081  00000+0  00000+0 0  9992
2 44903   0.2329  81.1938 0001467 351.2141 312.2467  1.00272636 23617
SHIJIAN-20 (SJ-20)      
1 44910U 19097A   26159.01146691  .00000151  00000+0  00000+0 0  9990
2 44910   4.8946  75.1748 0013806  52.9393 177.1972  1.00274774 23609
TJS-5                   
1 44978U 20002A   26159.00854968 -.00000327  00000+0  00000+0 0  9990
2 44978   0.0347 284.3079 0007577 122.7607 319.9111  1.00270307 23619
GSAT-30                 
1 45026U 20005A   26159.14628605 -.00000149  00000+0  00000+0 0  9992
2 45026   0.0511 106.9047 0003463 337.4024 307.8873  1.00269701 23414
EUTELSAT KONNECT        
1 45027U 20005B   26159.27389331  .00000065  00000+0  00000+0 0  9993
2 45027   0.0705  98.1276 0001097 136.9119 127.4734  1.00269655 24246
JCSAT-17                
1 45245U 20013A   26159.29935441 -.00000307  00000+0  00000+0 0  9995
2 45245   5.3923 356.7750 0002825  77.4276  66.2721  1.00272086 23147
GEO-KOMPSAT-2B          
1 45246U 20013B   26159.22655681 -.00000328  00000+0  00000+0 0  9997
2 45246   0.0407 165.2080 0000306 151.4105 149.8253  1.00271020 23192
BEIDOU-3 G2             
1 45344U 20017A   26159.14567939 -.00000126  00000+0  00000+0 0  9995
2 45344   2.8454  47.2011 0002589  27.6442 314.1894  1.00273948 23165
AEHF-6 (USA 298)        
1 45465U 20022B   26159.29970108 -.00000284  00000+0  00000+0 0  9992
2 45465   2.5687 301.0167 0043139  17.4243 183.8651  1.00275551 22926
BEIDOU-3 G3             
1 45807U 20040A   26159.29432773 -.00000338  00000+0  00000+0 0  9993
2 45807   2.4246  67.4298 0002916 337.9515  67.8456  1.00272210 21982
APSTAR-6D               
1 45863U 20045A   26159.01000512 -.00000302  00000+0  00000+0 0  9993
2 45863   0.0489 106.8068 0002233 339.1651 308.0700  1.00270839 21760
KOREASAT 116            
1 45920U 20048A   26159.29545440 -.00000346  00000+0  00000+0 0  9992
2 45920   0.0120 320.6060 0000999 109.4369  49.2261  1.00273319 21554
EXPRESS 103             
1 45985U 20053A   26159.00638300 -.00000266  00000+0  00000+0 0  9997
2 45985   0.0219 278.4547 0000483 124.2603 312.4882  1.00273722 21550
EXPRESS 80              
1 45986U 20053B   26159.06548244 -.00000121  00000+0  00000+0 0  9991
2 45986   0.0209 296.5836 0002255 218.5880 204.8483  1.00272944 21539
BSAT-4B                 
1 46112U 20056A   26158.99160606 -.00000335  00000+0  00000+0 0  9996
2 46112   0.0494 168.0088 0004050 306.4242 248.7625  1.00270089 21299
MEV-2                   
1 46113U 20056B   26158.91574572  .00000004  00000+0  00000+0 0  9992
2 46113   0.0048 329.6678 0000446 189.7889  65.5178  1.00271594 80441
GALAXY 30 (G-30)        
1 46114U 20056C   26158.96248221  .00000052  00000+0  00000+0 0  9990
2 46114   0.0178 358.1248 0002238  76.5119  43.2111  1.00272767 21208
GAOFEN-13 01            
1 46610U 20071A   26159.29571440 -.00000347  00000+0  00000+0 0  9995
2 46610   0.4972  84.9459 0041149 123.2170 273.1474  1.00276038 20833
TIANTONG-1 2            
1 46916U 20082A   26159.29718773 -.00000341  00000+0  00000+0 0  9992
2 46916   0.8026 326.1535 0001409 110.4884  51.9558  1.00268054 20561
LUCAS (JDRS-1)          
1 47202U 20089A   26159.29027339 -.00000220  00000+0  00000+0 0  9995
2 47202   0.0288 276.0800 0002369 152.3020  23.5884  1.00273612 20331
SXM-7                   
1 47240U 20096A   26158.61393168 -.00000190  00000+0  00000+0 0  9992
2 47240   0.0378 141.6884 0004061 342.0662 268.1326  1.00271437  7340
CMS-01                  
1 47256U 20099A   26159.07498130 -.00000149  00000+0  00000+0 0  9992
2 47256   0.0742  99.4877 0003574 183.1696  83.7932  1.00270201 20104
TURKSAT 5A              
1 47306U 21001A   26159.02145726  .00000169  00000+0  00000+0 0  9998
2 47306   0.0137  47.3009 0000106  19.5089 228.2754  1.00271646 19877
TIANTONG-1 3            
1 47321U 21003A   26159.14602605 -.00000142  00000+0  00000+0 0  9996
2 47321   1.7637 338.7345 0003519 104.3376 307.5884  1.00272615 19872
TJS-6                   
1 47613U 21010A   26157.09751244  .00000056  00000+0  00000+0 0  9997
2 47613   0.2892  89.8415 0005375  54.6095 323.6795  1.00269486 19706
SBIRS GEO-5 (USA 315)   
1 48618U 21042A   26159.00577633 -.00000258  00000+0  00000+0 0  9994
2 48618   5.1158 329.0471 0001632 121.9585 261.2920  1.00271284 18688
FENGYUN 4B              
1 48808U 21047A   26156.58393231 -.00000317  00000+0  00000+0 0  9996
2 48808   0.1239  75.7773 0005177 289.8220 203.2690  1.00266147 18459
