OBJECT_NAME,OBJECT_ID,EPOCH,MEAN_MOTION,ECCENTRICITY,INCLINATION,RA_OF_ASC_NODE,ARG_OF_PERICENTER,MEAN_ANOMALY,EPHEMERIS_TYPE,CLASSIFICATION_TYPE,NORAD_CAT_ID,ELEMENT_SET_NO,REV_AT_EPOCH,BSTAR,MEAN_MOTION_DOT,MEAN_MOTION_DDOT
TJS-4,2019-070A,2026-06-08T03:30:46.603872,1.00270325,.00048976,0.0127,285.1460,114.5803,353.0353,0,U,44637,999,2444,0,-.154E-5,0
BEIDOU-3 IGSO-3,2019-073A,2026-05-16T19:27:04.075776,1.00246251,.0042953,54.8566,281.2355,189.4588,170.3676,0,U,44709,999,2414,0,-.217E-5,0
TIBA-1,2019-080A,2026-06-08T06:42:23.616000,1.00274328,.00021797,0.0515,346.1762,114.0629,292.5485,0,U,44800,999,2396,0,.171E-5,0
INMARSAT GX5,2019-080B,2026-06-08T06:35:24.285696,1.00270443,.00024636,0.0377,8.7919,66.8794,290.8881,0,U,44801,999,669,0,.9E-6,0
JCSAT-18 (KACIFIC 1),2019-091A,2026-06-08T05:32:21.422400,1.00270939,.00002709,0.0227,230.8659,340.2653,278.6035,0,U,44868,999,2392,0,-.185E-5,0
ELEKTRO-L 3,2019-095A,2026-06-08T03:28:39.307296,1.00272636,.00014674,0.2329,81.1938,351.2141,312.2467,0,U,44903,999,2361,0,-.81E-6,0
SHIJIAN-20 (SJ-20),2019-097A,2026-06-08T00:16:30.741024,1.00274774,.0013806,4.8946,75.1748,52.9393,177.1972,0,U,44910,999,2360,0,.151E-5,0
TJS-5,2020-002A,2026-06-08T00:12:18.692352,1.00270307,.0007577,0.0347,284.3079,122.7607,319.9111,0,U,44978,999,2361,0,-.327E-5,0
GSAT-30,2020-005A,2026-06-08T03:30:39.114720,1.00269701,.00034639,0.0511,106.9047,337.4024,307.8873,0,U,45026,999,2341,0,-.149E-5,0
EUTELSAT KONNECT,2020-005B,2026-06-08T06:34:24.381984,1.00269655,.00010977,0.0705,98.1276,136.9119,127.4734,0,U,45027,999,2424,0,.65E-6,0
JCSAT-17,2020-013A,2026-06-08T07:11:04.221024,1.00272086,.00028256,5.3923,356.7750,77.4276,66.2721,0,U,45245,999,2314,0,-.307E-5,0
GEO-KOMPSAT-2B,2020-013B,2026-06-08T05:26:14.508384,1.00271020,.00003065,0.0407,165.2080,151.4105,149.8253,0,U,45246,999,2319,0,-.328E-5,0
BEIDOU-3 G2,2020-017A,2026-06-08T03:29:46.699296,1.00273948,.00025894,2.8454,47.2011,27.6442,314.1894,0,U,45344,999,2316,0,-.126E-5,0
AEHF-6 (USA 298),2020-022B,2026-06-08T07:11:34.173312,1.00275551,.0043139,2.5687,301.0167,17.4243,183.8651,0,U,45465,999,2292,0,-.284E-5,0
BEIDOU-3 G3,2020-040A,2026-06-08T07:03:49.915872,1.00272210,.00029163,2.4246,67.4298,337.9515,67.8456,0,U,45807,999,2198,0,-.338E-5,0
APSTAR-6D,2020-045A,2026-06-08T00:14:24.442368,1.00270839,.00022336,0.0489,106.8068,339.1651,308.0700,0,U,45863,999,2176,0,-.302E-5,0
KOREASAT 116,2020-048A,2026-06-08T07:05:27.260160,1.00273319,.00009991,0.0120,320.6060,109.4369,49.2261,0,U,45920,999,2155,0,-.346E-5,0
EXPRESS 103,2020-053A,2026-06-08T00:09:11.491200,1.00273722,.00004838,0.0219,278.4547,124.2603,312.4882,0,U,45985,999,2155,0,-.266E-5,0
EXPRESS 80,2020-053B,2026-06-08T01:34:17.682816,1.00272944,.00022557,0.0209,296.5836,218.5880,204.8483,0,U,45986,999,2153,0,-.121E-5,0
BSAT-4B,2020-056A,2026-06-07T23:47:54.763584,1.00270089,.00040509,0.0494,168.0088,306.4242,248.7625,0,U,46112,999,2129,0,-.335E-5,0
MEV-2,2020-056B,2026-06-07T21:58:40.430208,1.00271594,.00004465,0.0048,329.6678,189.7889,65.5178,0,U,46113,999,8044,0,.4E-7,0
GALAXY 30 (G-30),2020-056C,2026-06-07T23:05:58.462944,1.00272767,.00022381,0.0178,358.1248,76.5119,43.2111,0,U,46114,999,2120,0,.52E-6,0
GAOFEN-13 01,2020-071A,2026-06-08T07:05:49.724160,1.00276038,.00411495,0.4972,84.9459,123.2170,273.1474,0,U,46610,999,2083,0,-.347E-5,0
TIANTONG-1 2,2020-082A,2026-06-08T07:07:57.019872,1.00268054,.00014094,0.8026,326.1535,110.4884,51.9558,0,U,46916,999,2056,0,-.341E-5,0
LUCAS (JDRS-1),2020-089A,2026-06-08T06:57:59.620896,1.00273612,.00023696,0.0288,276.0800,152.3020,23.5884,0,U,47202,999,2033,0,-.22E-5,0
SXM-7,2020-096A,2026-06-07T14:44:03.697152,1.00271437,.00040619,0.0378,141.6884,342.0662,268.1326,0,U,47240,999,734,0,-.19E-5,0
CMS-01,2020-099A,2026-06-08T01:47:58.384320,1.00270201,.0003574,0.0742,99.4877,183.1696,83.7932,0,U,47256,999,2010,0,-.149E-5,0
TURKSAT 5A,2021-001A,2026-06-08T00:30:53.907264,1.00271646,.0000106,0.0137,47.3009,19.5089,228.2754,0,U,47306,999,1987,0,.169E-5,0
TIANTONG-1 3,2021-003A,2026-06-08T03:30:16.650720,1.00272615,.00035196,1.7637,338.7345,104.3376,307.5884,0,U,47321,999,1987,0,-.142E-5,0
TJS-6,2021-010A,2026-06-06T02:20:25.074816,1.00269486,.0005375,0.2892,89.8415,54.6095,323.6795,0,U,47613,999,1970,0,.56E-6,0
SBIRS GEO-5 (USA 315),2021-042A,2026-06-08T00:08:19.074912,1.00271284,.00016327,5.1158,329.0471,121.9585,261.2920,0,U,48618,999,1868,0,-.258E-5,0
FENGYUN 4B,2021-047A,2026-06-05T14:00:51.751584,1.00266147,.00051777,0.1239,75.7773,289.8220,203.2690,0,U,48808,999,1845,0,-.317E-5,0
